NORAD_CAT_ID,OBJECT_NAME,OBJECT_TYPE,EPOCH,MEAN_MOTION,ECCENTRICITY,INCLINATION,RA_OF_ASC_NODE,ARG_OF_PERICENTER,MEAN_ANOMALY,BSTAR,MEAN_MOTION_DOT,MEAN_MOTION_DDOT,TLE_LINE0,TLE_LINE1,TLE_LINE2,SEMIMAJOR_AXIS,PERIOD,APOGEE,PERIGEE,DECAYED
54010.0,STARLINK-5127,PAYLOAD,2022-10-20 20:00:01,15.7634444,0.0007524,53.2171,17.7361,269.6984,316.4216,-0.0046361999999999,-0.00691212,0.0,0 STARLINK-5127,1 54010U 22125AY  22293.83334491 -.00691212  00000-0 -46362-2 0  9991,2 54010  53.2171  17.7361 0007524 269.6984 316.4216 15.76344440  2720,6718.945,91.351,345.865,335.755,0.0
54010.0,STARLINK-5127,PAYLOAD,2022-10-20 22:00:00,15.76217988,0.0007376,53.2174,17.3212,269.0969,70.182,-0.004598,-0.00682305,0.0,0 STARLINK-5127,1 54010U 22125AY  22293.91667824 -.00682305  00000-0 -45980-2 0  9997,2 54010  53.2174  17.3212 0007376 269.0969  70.1820 15.76217988  1300,6719.304,91.358,346.126,336.213,0.0
54010.0,STARLINK-5127,PAYLOAD,2022-10-21 06:00:00,15.75734005,0.000133,53.2176,15.6639,44.6248,26.9156,-0.0047615,-0.00688815,0.0,0 STARLINK-5127,1 54010U 22125AY  22294.25001157 -.00688815  00000-0 -47615-2 0  9995,2 54010  53.2176  15.6639 0001330  44.6248  26.9156 15.75734005  2784,6720.68,91.386,343.439,341.651,0.0
54010.0,STARLINK-5127,PAYLOAD,2022-10-21 14:00:01,15.75246009,0.0001717,53.2177,14.0109,36.8939,126.321,-0.0048674,-0.00689214,0.0,0 STARLINK-5127,1 54010U 22125AY  22294.58334491 -.00689214  00000-0 -48674-2 0  9991,2 54010  53.2177  14.0109 0001717  36.8939 126.3210 15.75246009  1304,6722.068,91.414,345.087,342.779,0.0
54010.0,STARLINK-5127,PAYLOAD,2022-10-21 22:00:00,15.74761008,0.0001448,53.2181,12.3555,42.2401,212.064,-0.0050208,-0.00695392,0.0,0 STARLINK-5127,1 54010U 22125AY  22294.91667824 -.00695392  00000-0 -50208-2 0  9997,2 54010  53.2181  12.3555 0001448  42.2401 212.0640 15.74761008  1301,6723.448,91.442,346.287,344.34,0.0
54010.0,STARLINK-5127,PAYLOAD,2022-10-22 06:00:00,15.74266956,0.000166,53.2183,10.7021,33.769,311.0397,-0.0050466,-0.00684951,0.0,0 STARLINK-5127,1 54010U 22125AY  22295.25001157 -.00684951  00000-0 -50466-2 0  9991,2 54010  53.2183  10.7021 0001660  33.7690 311.0397 15.74266956  2946,6724.855,91.471,347.836,345.60400000000016,0.0
54010.0,STARLINK-5127,PAYLOAD,2022-10-22 14:00:01,15.73674342,0.0001459,53.2187,9.0528,51.2481,23.4977,-0.0030491999999999,-0.00416474,0.0,0 STARLINK-5127,1 54010U 22125AY  22295.58334491 -.00416474  00000-0 -30492-2 0  9997,2 54010  53.2187   9.0528 0001459  51.2481  23.4977 15.73674342  1300,6726.543000000002,91.506,349.39,347.427,0.0
54010.0,STARLINK-5127,PAYLOAD,2022-10-22 20:00:01,15.73427817,0.0001556,53.218,7.8142,45.3644,6.4071,-0.0022458,-0.00307564,0.0,0 STARLINK-5127,1 54010U 22125AY  22295.83334491 -.00307564  00000-0 -22458-2 0  9997,2 54010  53.2180   7.8142 0001556  45.3644   6.4071 15.73427817  3035,6727.246,91.52,350.157,348.064,0.0
54010.0,STARLINK-5127,PAYLOAD,2022-10-22 22:00:00,15.73326792,0.0001568,53.2177,7.4008,43.4272,120.6496,-0.0013723,-0.00189965,0.0,0 STARLINK-5127,1 54010U 22125AY  22295.91667824 -.00189965  00000-0 -13723-2 0  9993,2 54010  53.2177   7.4008 0001568  43.4272 120.6496 15.73326792  1305,6727.534000000002,91.526,350.454,348.344,0.0
54010.0,STARLINK-5127,PAYLOAD,2022-10-23 06:00:00,15.73211935,0.0001704,53.2227,5.7527,44.0204,208.9483,0.00056772,0.00079858,0.0,0 STARLINK-5127,1 54010U 22125AY  22296.25001157  .00079858  00000-0  56772-3 0  9991,2 54010  53.2227   5.7527 0001704  44.0204 208.9483 15.73211935  3100,6727.861,91.532,350.87300000000016,348.58,0.0
54010.0,STARLINK-5127,PAYLOAD,2022-10-23 12:00:00,15.73358104,0.0001732,53.2192,4.5157,47.0345,182.6441,-0.0015207,-0.00210229,0.0,0 STARLINK-5127,1 54010U 22125AY  22296.50001157 -.00210229  00000-0 -15207-2 0  9997,2 54010  53.2192   4.5157 0001732  47.0345 182.6441 15.73358104  3143,6727.444,91.524,350.475,348.144,0.0
54010.0,STARLINK-5127,PAYLOAD,2022-10-23 14:00:01,15.73297926,0.0001714,53.2187,4.1035,47.9672,293.991,-0.0010438,-0.00145225,0.0,0 STARLINK-5127,1 54010U 22125AY  22296.58334491 -.00145225  00000-0 -10438-2 0  9999,2 54010  53.2187   4.1035 0001714  47.9672 293.9910 15.73297926  1307,6727.616,91.527,350.634,348.32800000000015,0.0
54010.0,STARLINK-5127,PAYLOAD,2022-10-23 22:00:00,15.7326037,0.0001647,53.2217,2.4544,31.4769,39.4684,-0.0004426,-0.00062439,0.0,0 STARLINK-5127,1 54010U 22125AY  22296.91667824 -.00062439  00000-0 -44260-3 0  9991,2 54010  53.2217   2.4544 0001647  31.4769  39.4684 15.73260370  3202,6727.723000000001,91.53,350.696,348.48,0.0
54010.0,STARLINK-5127,PAYLOAD,2022-10-24 12:00:00,15.73190153,0.0001896999999999,53.2204,359.5696,31.3933,105.251,0.00023685,0.00032736,0.0,0 STARLINK-5127,1 54010U 22125AY  22297.50001157  .00032736  00000-0  23685-3 0  9991,2 54010  53.2204 359.5696 0001897  31.3933 105.2510 15.73190153  3291,6727.9230000000025,91.534,351.065,348.51199999999994,0.0
54010.0,STARLINK-5127,PAYLOAD,2022-10-24 14:00:01,15.73167986,0.0001961,53.2204,359.1577,31.3276,217.555,0.00068184,0.00096043,0.0,0 STARLINK-5127,1 54010U 22125AY  22297.58334491  .00096043  00000-0  68184-3 0  9993,2 54010  53.2204 359.1577 0001961  31.3276 217.5550 15.73167986  1306,6727.986,91.535,351.171,348.532,0.0
54010.0,STARLINK-5127,PAYLOAD,2022-10-24 22:00:00,15.73238643,0.0001745,53.2199,357.5064,31.8465,305.9671,-0.00065901,-0.00092257,0.0,0 STARLINK-5127,1 54010U 22125AY  22297.91667824 -.00092257  00000-0 -65901-3 0  9998,2 54010  53.2199 357.5064 0001745  31.8465 305.9671 15.73238643  1302,6727.785,91.531,350.824,348.476,0.0
54010.0,STARLINK-5127,PAYLOAD,2022-10-25 06:00:00,15.73192787,0.0001853,53.2199,355.857,35.1264,31.6218,-0.00012466,-0.00018074,0.0,0 STARLINK-5127,1 54010U 22125AY  22298.25001157 -.00018074  00000-0 -12466-3 0  9990,2 54010  53.2199 355.8570 0001853  35.1264  31.6218 15.73192787  3411,6727.916,91.534,351.027,348.534,0.0
54010.0,STARLINK-5127,PAYLOAD,2022-10-25 14:00:01,15.73133856,0.0002159,53.2198,354.2095,32.8003,122.8428,0.00072362,0.00101889,0.0,0 STARLINK-5127,1 54010U 22125AY  22298.58334491  .00101889  00000-0  72362-3 0  9992,2 54010  53.2198 354.2095 0002159  32.8003 122.8428 15.73133856  1304,6728.084,91.537,351.401,348.496,0.0
54010.0,STARLINK-5127,PAYLOAD,2022-10-25 22:00:01,15.731909,0.0001982,53.2196,352.5583,34.6102,209.9888,0.00035531,0.00049522,0.0,0 STARLINK-5127,1 54010U 22125AY  22298.91668981  .00049522  00000-0  35531-3 0  9995,2 54010  53.2196 352.5583 0001982  34.6102 209.9888 15.73190900  1308,6727.920999999999,91.534,351.12,348.45300000000015,0.0
54010.0,STARLINK-5127,PAYLOAD,2022-10-26 06:00:00,15.73279767,0.0001841,53.2194,350.9092,31.5299,301.9298,-0.0011450999999999,-0.00158884,0.0,0 STARLINK-5127,1 54010U 22125AY  22299.25001157 -.00158884  00000-0 -11451-2 0  9997,2 54010  53.2194 350.9092 0001841  31.5299 301.9298 15.73279767  3578,6727.668000000002,91.529,350.771,348.2940000000001,0.0
54010.0,STARLINK-5127,PAYLOAD,2022-10-26 14:00:01,15.73118882,0.0001996,53.219,349.2614,22.1177,40.3109,0.00053747,0.00075228,0.0,0 STARLINK-5127,1 54010U 22125AY  22299.58334491  .00075228  00000-0  53747-3 0  9996,2 54010  53.2190 349.2614 0001996  22.1177  40.3109 15.73118882  1301,6728.126,91.538,351.334,348.649,0.0
54010.0,STARLINK-5127,PAYLOAD,2022-10-26 20:00:01,15.73168623,0.0001888,53.2191,348.0229,22.3395,16.7281,0.00013337,0.00018113,0.0,0 STARLINK-5127,1 54010U 22125AY  22299.83334491  .00018113  00000-0  13337-3 0  9995,2 54010  53.2191 348.0229 0001888  22.3395  16.7281 15.73168623  3662,6727.985,91.535,351.12,348.579,0.0
54010.0,STARLINK-5127,PAYLOAD,2022-10-26 22:00:00,15.73154836,0.0001833,53.2193,347.6101,22.4122,128.8832,0.00043959,0.00061407,0.0,0 STARLINK-5127,1 54010U 22125AY  22299.91667824  .00061407  00000-0  43959-3 0  9990,2 54010  53.2193 347.6101 0001833  22.4122 128.8832 15.73154836  1304,6728.024,91.536,351.122,348.656,0.0
54010.0,STARLINK-5127,PAYLOAD,2022-10-27 06:00:00,15.73227438,0.0001942,53.2194,345.9609,27.4169,212.7883,0.00024143,0.00033438,0.0,0 STARLINK-5127,1 54010U 22125AY  22300.25001157  .00033438  00000-0  24143-3 0  9998,2 54010  53.2194 345.9609 0001942  27.4169 212.7883 15.73227438  3733,6727.816999999999,91.532,350.98800000000006,348.375,0.0
54010.0,STARLINK-5127,PAYLOAD,2022-10-27 14:00:01,15.73247298,0.0002262,53.2191,344.3129,24.6219,304.6253,0.00042573,0.00059679,0.0,0 STARLINK-5127,1 54010U 22125AY  22300.58335648  .00059679  00000-0  42573-3 0  9991,2 54010  53.2191 344.3129 0002262  24.6219 304.6253 15.73247298  1300,6727.76,91.53,351.147,348.10400000000016,0.0
54010.0,STARLINK-5127,PAYLOAD,2022-10-27 22:00:00,15.73271063,0.0002061,53.2191,342.6613,29.5571,28.6489,-0.00032183,-0.00045685,0.0,0 STARLINK-5127,1 54010U 22125AY  22300.91667824 -.00045685  00000-0 -32183-3 0  9992,2 54010  53.2191 342.6613 0002061  29.5571  28.6489 15.73271063  1302,6727.693,91.529,350.944,348.171,0.0
54010.0,STARLINK-5127,PAYLOAD,2022-10-28 06:00:00,15.73246616,0.00022,53.2189,341.0123,32.2739,114.929,-0.00045365,-0.0006394,0.0,0 STARLINK-5127,1 54010U 22125AY  22301.25001157 -.00063940  00000-0 -45365-3 0  9991,2 54010  53.2189 341.0123 0002200  32.2739 114.9290 15.73246616  3880,6727.762,91.53,351.107,348.147,0.0
54010.0,STARLINK-5127,PAYLOAD,2022-10-28 14:00:01,15.73216518,0.0002343999999999,53.2186,339.3641,28.8572,207.3661,0.00011034,0.00014904,0.0,0 STARLINK-5127,1 54010U 22125AY  22301.58335648  .00014904  00000-0  11034-3 0  9992,2 54010  53.2186 339.3641 0002344  28.8572 207.3661 15.73216518  1309,6727.848000000001,91.532,351.29,348.136,0.0
54010.0,STARLINK-5127,PAYLOAD,2022-10-28 22:00:01,15.73201182,0.000208,53.2188,337.7125,28.2632,296.9223,-0.00026958,-0.00038288,0.0,0 STARLINK-5127,1 54010U 22125AY  22301.91668981 -.00038288  00000-0 -26958-3 0  9992,2 54010  53.2188 337.7125 0002080  28.2632 296.9223 15.73201182  3994,6727.892,91.533,351.156,348.357,0.0
